{
  "type": "FeatureCollection",
  "features": [
    {
      "type": "Feature",
      "properties": {
        "norad_id": 35667,
        "name": "COSMOS 2251 DEB",
        "group": "cosmos-2251-debris",
        "lat": 69.34822649185404,
        "lon": -77.5433142340618,
        "alt_km": 691.2187922195908,
        "timestamp": "2025-12-06T14:35:37.522551+00:00",
        "meta_object_name": "COSMOS 2251 DEB",
        "meta_object_id": "1993-036APJ",
        "meta_epoch": "2025-12-03T05:32:00.225024",
        "meta_mean_motion": 14.59863315,
        "meta_eccentricity": 0.0020461,
        "meta_inclination": 74.0542,
        "meta_ra_of_asc_node": 158.2289,
        "meta_arg_of_pericenter": 220.1527,
        "meta_mean_anomaly": 139.8128,
        "meta_ephemeris_type": 0,
        "meta_classification_type": "U",
        "meta_norad_cat_id": 35667,
        "meta_element_set_no": 999,
        "meta_rev_at_epoch": 70664,
        "meta_bstar": 0.0013542,
        "meta_mean_motion_dot": 6.475e-05,
        "meta_mean_motion_ddot": 0,
        "tle_line1": "1 35667U 93036APJ 25337.23055816  .00006475  00000+0  13542-2 0  9996",
        "tle_line2": "2 35667  74.0542 158.2289 0020461 220.1527 139.8128 14.59863315706648"
      },
      "geometry": {
        "type": "Point",
        "coordinates": [
          -77.5433142340618,
          69.34822649185404
        ]
      }
    },
    {
      "type": "Feature",
      "properties": {
        "norad_id": 35668,
        "name": "COSMOS 2251 DEB",
        "group": "cosmos-2251-debris",
        "lat": 47.60222898366932,
        "lon": 34.03196304886144,
        "alt_km": 726.9714637436491,
        "timestamp": "2025-12-06T14:35:37.522561+00:00",
        "meta_object_name": "COSMOS 2251 DEB",
        "meta_object_id": "1993-036APK",
        "meta_epoch": "2025-12-05T23:14:35.541888",
        "meta_mean_motion": 14.63954934,
        "meta_eccentricity": 0.00829995,
        "meta_inclination": 74.0457,
        "meta_ra_of_asc_node": 233.5181,
        "meta_arg_of_pericenter": 340.1453,
        "meta_mean_anomaly": 19.6489,
        "meta_ephemeris_type": 0,
        "meta_classification_type": "U",
        "meta_norad_cat_id": 35668,
        "meta_element_set_no": 999,
        "meta_rev_at_epoch": 87548,
        "meta_bstar": 0.00053655802,
        "meta_mean_motion_dot": 2.921e-05,
        "meta_mean_motion_ddot": 0,
        "tle_line1": "1 35668U 93036APK 25339.96846692  .00002921  00000+0  53656-3 0  9992",
        "tle_line2": "2 35668  74.0457 233.5181 0082999 340.1453  19.6489 14.63954934875484"
      },
      "geometry": {
        "type": "Point",
        "coordinates": [
          34.03196304886144,
          47.60222898366932
        ]
      }
    },
    {
      "type": "Feature",
      "properties": {
        "norad_id": 35669,
        "name": "COSMOS 2251 DEB",
        "group": "cosmos-2251-debris",
        "lat": -51.72526481382884,
        "lon": 147.80811866606211,
        "alt_km": 785.9821188559054,
        "timestamp": "2025-12-06T14:35:37.522571+00:00",
        "meta_object_name": "COSMOS 2251 DEB",
        "meta_object_id": "1993-036APL",
        "meta_epoch": "2025-12-03T21:23:42.149184",
        "meta_mean_motion": 13.57134195,
        "meta_eccentricity": 0.0387239,
        "meta_inclination": 73.852,
        "meta_ra_of_asc_node": 173.7821,
        "meta_arg_of_pericenter": 287.3475,
        "meta_mean_anomaly": 68.5633,
        "meta_ephemeris_type": 0,
        "meta_classification_type": "U",
        "meta_norad_cat_id": 35669,
        "meta_element_set_no": 999,
        "meta_rev_at_epoch": 60669,
        "meta_bstar": 0.0017031,
        "meta_mean_motion_dot": 1.95e-05,
        "meta_mean_motion_ddot": 0,
        "tle_line1": "1 35669U 93036APL 25337.89146006  .00001950  00000+0  17031-2 0  9992",
        "tle_line2": "2 35669  73.8520 173.7821 0387239 287.3475  68.5633 13.57134195606690"
      },
      "geometry": {
        "type": "Point",
        "coordinates": [
          147.80811866606211,
          -51.72526481382884
        ]
      }
    },
    {
      "type": "Feature",
      "properties": {
        "norad_id": 35670,
        "name": "COSMOS 2251 DEB",
        "group": "cosmos-2251-debris",
        "lat": 57.01474767791025,
        "lon": -129.49413707110875,
        "alt_km": 575.8869741626659,
        "timestamp": "2025-12-06T14:35:37.522581+00:00",
        "meta_object_name": "COSMOS 2251 DEB",
        "meta_object_id": "1993-036APM",
        "meta_epoch": "2025-12-03T00:51:50.152032",
        "meta_mean_motion": 14.93482129,
        "meta_eccentricity": 0.00369334,
        "meta_inclination": 73.8945,
        "meta_ra_of_asc_node": 84.1864,
        "meta_arg_of_pericenter": 48.0359,
        "meta_mean_anomaly": 312.396,
        "meta_ephemeris_type": 0,
        "meta_classification_type": "U",
        "meta_norad_cat_id": 35670,
        "meta_element_set_no": 999,
        "meta_rev_at_epoch": 87582,
        "meta_bstar": 0.001906882,
        "meta_mean_motion_dot": 0.00020358,
        "meta_mean_motion_ddot": 0,
        "tle_line1": "1 35670U 93036APM 25337.03599713  .00020358  00000+0  19069-2 0  9993",
        "tle_line2": "2 35670  73.8945  84.1864 0036933  48.0359 312.3960 14.93482129875820"
      },
      "geometry": {
        "type": "Point",
        "coordinates": [
          -129.49413707110875,
          57.01474767791025
        ]
      }
    },
    {
      "type": "Feature",
      "properties": {
        "norad_id": 35671,
        "name": "COSMOS 2251 DEB",
        "group": "cosmos-2251-debris",
        "lat": 56.288474435504114,
        "lon": -114.62744497890858,
        "alt_km": 749.7406299688901,
        "timestamp": "2025-12-06T14:35:37.522592+00:00",
        "meta_object_name": "COSMOS 2251 DEB",
        "meta_object_id": "1993-036APN",
        "meta_epoch": "2025-12-06T01:35:44.060352",
        "meta_mean_motion": 14.48329576,
        "meta_eccentricity": 0.00414957,
        "meta_inclination": 74.0176,
        "meta_ra_of_asc_node": 91.8267,
        "meta_arg_of_pericenter": 267.0108,
        "meta_mean_anomaly": 270.5806,
        "meta_ephemeris_type": 0,
        "meta_classification_type": "U",
        "meta_norad_cat_id": 35671,
        "meta_element_set_no": 999,
        "meta_rev_at_epoch": 86666,
        "meta_bstar": 0.00042163913,
        "meta_mean_motion_dot": 1.566e-05,
        "meta_mean_motion_ddot": 0,
        "tle_line1": "1 35671U 93036APN 25340.06648218  .00001566  00000+0  42164-3 0  9999",
        "tle_line2": "2 35671  74.0176  91.8267 0041495 267.0108 270.5806 14.48329576866668"
      },
      "geometry": {
        "type": "Point",
        "coordinates": [
          -114.62744497890858,
          56.288474435504114
        ]
      }
    },
    {
      "type": "Feature",
      "properties": {
        "norad_id": 35674,
        "name": "COSMOS 2251 DEB",
        "group": "cosmos-2251-debris",
        "lat": -45.598247043087454,
        "lon": 165.05465537849835,
        "alt_km": 775.3083650409471,
        "timestamp": "2025-12-06T14:35:37.522602+00:00",
        "meta_object_name": "COSMOS 2251 DEB",
        "meta_object_id": "1993-036APR",
        "meta_epoch": "2025-12-06T05:17:28.209696",
        "meta_mean_motion": 14.54037935,
        "meta_eccentricity": 0.0095963,
        "meta_inclination": 74.0595,
        "meta_ra_of_asc_node": 328.8178,
        "meta_arg_of_pericenter": 15.1029,
        "meta_mean_anomaly": 345.2962,
        "meta_ephemeris_type": 0,
        "meta_classification_type": "U",
        "meta_norad_cat_id": 35674,
        "meta_element_set_no": 999,
        "meta_rev_at_epoch": 86016,
        "meta_bstar": 0.0028900264,
        "meta_mean_motion_dot": 0.00012958,
        "meta_mean_motion_ddot": 0,
        "tle_line1": "1 35674U 93036APR 25340.22046539  .00012958  00000+0  28900-2 0  9996",
        "tle_line2": "2 35674  74.0595 328.8178 0095963  15.1029 345.2962 14.54037935860167"
      },
      "geometry": {
        "type": "Point",
        "coordinates": [
          165.05465537849835,
          -45.598247043087454
        ]
      }
    },
    {
      "type": "Feature",
      "properties": {
        "norad_id": 35701,
        "name": "COSMOS 2251 DEB",
        "group": "cosmos-2251-debris",
        "lat": -12.421843991458985,
        "lon": -50.931588516403075,
        "alt_km": 1177.0692280923458,
        "timestamp": "2025-12-06T14:35:37.522612+00:00",
        "meta_object_name": "COSMOS 2251 DEB",
        "meta_object_id": "1993-036APW",
        "meta_epoch": "2025-12-06T05:57:57.623904",
        "meta_mean_motion": 13.80843435,
        "meta_eccentricity": 0.02897209,
        "meta_inclination": 74.0028,
        "meta_ra_of_asc_node": 313.2955,
        "meta_arg_of_pericenter": 164.0681,
        "meta_mean_anomaly": 196.98,
        "meta_ephemeris_type": 0,
        "meta_classification_type": "U",
        "meta_norad_cat_id": 35701,
        "meta_element_set_no": 999,
        "meta_rev_at_epoch": 62069,
        "meta_bstar": 0.0021223911,
        "meta_mean_motion_dot": 3.05e-05,
        "meta_mean_motion_ddot": 0,
        "tle_line1": "1 35701U 93036APW 25340.24858361  .00003050  00000+0  21224-2 0  9998",
        "tle_line2": "2 35701  74.0028 313.2955 0289720 164.0681 196.9800 13.80843435620696"
      },
      "geometry": {
        "type": "Point",
        "coordinates": [
          -50.931588516403075,
          -12.421843991458985
        ]
      }
    }
  ]
}